NORAD_CAT_ID,OBJECT_NAME,OBJECT_TYPE,EPOCH,MEAN_MOTION,ECCENTRICITY,INCLINATION,RA_OF_ASC_NODE,ARG_OF_PERICENTER,MEAN_ANOMALY,BSTAR,MEAN_MOTION_DOT,MEAN_MOTION_DDOT,TLE_LINE0,TLE_LINE1,TLE_LINE2,SEMIMAJOR_AXIS,PERIOD,APOGEE,PERIGEE,DECAYED
51795.0,STARLINK-3586,PAYLOAD,2024-02-17 11:26:59,15.08611844,0.000139,53.2167,121.5364,71.4286,288.6857,-0.0016347,-0.00026048,0.0,0 STARLINK-3586,1 51795U 22017AD  24048.47708164 -.00026048  00000-0 -16347-2 0  9999,2 51795  53.2167 121.5364 0001390  71.4286 288.6857 15.08611844110516,6918.578,95.452,541.405,539.481,0.0
51795.0,STARLINK-3586,PAYLOAD,2024-02-17 16:13:17,15.08544764,0.0001369,53.2171,120.6427,80.5341,279.5805,-0.002221,-0.00035179,0.0,0 STARLINK-3586,1 51795U 22017AD  24048.67589161 -.00035179  00000-0 -22210-2 0  9996,2 51795  53.2171 120.6427 0001369  80.5341 279.5805 15.08544764110541,6918.783,95.456,541.595,539.701,0.0
51795.0,STARLINK-3586,PAYLOAD,2024-02-18 11:18:50,15.0805876,0.0001656,53.217,117.0787,82.4438,277.6742,-0.0056381,-0.00087061,0.0,0 STARLINK-3586,1 51795U 22017AD  24049.47141293 -.00087061  00000-0 -56381-2 0  9998,2 51795  53.2170 117.0787 0001656  82.4438 277.6742 15.08058760110664,6920.269,95.487,543.28,540.988,0.0
51795.0,STARLINK-3586,PAYLOAD,2024-02-18 22:00:00,15.07203122,0.0001147,53.2161,115.0826,72.9101,186.1958,-0.00078145,-0.00012158,0.0,0 STARLINK-3586,1 51795U 22017AD  24049.91667824 -.00012158  00000-0 -78145-3 0  9998,2 51795  53.2161 115.0826 0001147  72.9101 186.1958 15.07203122110725,6922.888,95.541,545.547,543.959,0.0
51795.0,STARLINK-3586,PAYLOAD,2024-02-19 14:00:01,15.07178325,0.0001237,53.2161,112.0992,74.5227,203.8396,0.0016766,0.00025311,0.0,0 STARLINK-3586,1 51795U 22017AD  24050.58334491  .00025311  00000-0  16766-2 0  9997,2 51795  53.2161 112.0992 0001237  74.5227 203.8396 15.07178325  5613,6922.964,95.543,545.686,543.973,0.0
51795.0,STARLINK-3586,PAYLOAD,2024-02-19 22:00:00,15.0719296,0.0001155,53.216,110.6051,85.7925,202.1851,0.0012653,0.00019023,0.0,0 STARLINK-3586,1 51795U 22017AD  24050.91667824  .00019023  00000-0  12653-2 0  9997,2 51795  53.2160 110.6051 0001155  85.7925 202.1851 15.07192960110874,6922.919,95.542,545.584,543.985,0.0
51795.0,STARLINK-3586,PAYLOAD,2024-02-20 00:00:02,15.07175471,0.0001143,53.2159,110.2316,89.6319,290.8202,0.0042365,0.00064745,0.0,0 STARLINK-3586,1 51795U 22017AD  24051.00002315  .00064745  00000-0  42365-2 0  9990,2 51795  53.2159 110.2316 0001143  89.6319 290.8202 15.07175471  5683,6922.973,95.543,545.629,544.047,0.0
51795.0,STARLINK-3586,PAYLOAD,2024-02-20 14:00:01,15.07182385,0.0001232,53.2158,107.6216,82.285,224.9537,0.0017967,0.00027154,0.0,0 STARLINK-3586,1 51795U 22017AD  24051.58334491  .00027154  00000-0  17967-2 0  9999,2 51795  53.2158 107.6216 0001232  82.2850 224.9537 15.07182385110979,6922.952,95.543,545.67,543.964,0.0
51795.0,STARLINK-3586,PAYLOAD,2024-02-21 00:00:00,15.07178424,0.0001201,53.2154,105.754,96.0192,313.2518,0.0040664,0.00062116,0.0,0 STARLINK-3586,1 51795U 22017AD  24052.00001157  .00062116  00000-0  40664-2 0  9994,2 51795  53.2154 105.7540 0001201  96.0192 313.2518 15.07178424  5830,6922.964,95.543,545.66,543.997,0.0
51795.0,STARLINK-3586,PAYLOAD,2024-02-21 14:00:01,15.07178558,0.0001393,53.2153,103.1439,80.3979,255.7429,0.0019871,0.00030071,0.0,0 STARLINK-3586,1 51795U 22017AD  24052.58334491  .00030071  00000-0  19871-2 0  9998,2 51795  53.2153 103.1439 0001393  80.3979 255.7429 15.07178558111128,6922.963,95.543,545.793,543.864,0.0
51795.0,STARLINK-3586,PAYLOAD,2024-02-21 22:00:00,15.07183326,0.0001392,53.2153,101.6495,87.7442,258.014,0.0020855,0.00031585,0.0,0 STARLINK-3586,1 51795U 22017AD  24052.91667824  .00031585  00000-0  20855-2 0  9999,2 51795  53.2153 101.6495 0001392  87.7442 258.0140 15.07183326  5710,6922.949,95.542,545.777,543.85,0.0
51795.0,STARLINK-3586,PAYLOAD,2024-02-22 02:50:17,15.0720072,0.0001335,53.2156,100.7472,83.4339,276.6804,7.0645e-05,7.92e-06,0.0,0 STARLINK-3586,1 51795U 22017AD  24053.11826230  .00000792  00000-0  70645-4 0  9990,2 51795  53.2156 100.7472 0001335  83.4339 276.6804 15.07200720111217,6922.896,95.541,545.685,543.836,0.0
51795.0,STARLINK-3586,PAYLOAD,2024-02-22 10:47:44,15.07206001,0.0001399,53.2162,99.2622,87.0955,273.0197,5.056e-05,4.86e-06,0.0,0 STARLINK-3586,1 51795U 22017AD  24053.44981959  .00000486  00000-0  50560-4 0  9990,2 51795  53.2162  99.2622 0001399  87.0955 273.0197 15.07206001111266,6922.879,95.541,545.713,543.776,0.0
51795.0,STARLINK-3586,PAYLOAD,2024-02-22 20:20:40,15.07210223,0.0001445,53.2164,97.4812,86.8589,273.2568,1.58e-05,-4.3e-07,0.0,0 STARLINK-3586,1 51795U 22017AD  24053.84768841 -.00000043  00000-0  15800-4 0  9995,2 51795  53.2164  97.4812 0001445  86.8589 273.2568 15.07210223111323,6922.866,95.541,545.732,543.731,0.0
51795.0,STARLINK-3586,PAYLOAD,2024-02-23 12:15:33,15.07215393,0.0001511,53.2164,94.5105,86.8178,273.2986,4.7153e-05,4.35e-06,0.0,0 STARLINK-3586,1 51795U 22017AD  24054.51080199  .00000435  00000-0  47153-4 0  9993,2 51795  53.2164  94.5105 0001511  86.8178 273.2986 15.07215393111422,6922.851,95.54,545.762,543.67,0.0
51795.0,STARLINK-3586,PAYLOAD,2024-02-23 20:13:00,15.07206777,0.0001546,53.2166,93.023,95.0455,265.0712,2.632e-06,-2.43e-06,0.0,0 STARLINK-3586,1 51795U 22017AD  24054.84236671 -.00000243  00000-0  26320-5 0  9999,2 51795  53.2166  93.0230 0001546  95.0455 265.0712 15.07206777111472,6922.877,95.541,545.812,543.672,0.0
51795.0,STARLINK-3586,PAYLOAD,2024-02-24 08:56:55,15.07194609,0.0001347,53.2167,90.6477,100.0402,260.0741,7.7562e-05,8.97e-06,0.0,0 STARLINK-3586,1 51795U 22017AD  24055.37286822  .00000897  00000-0  77562-4 0  9998,2 51795  53.2167  90.6477 0001347 100.0402 260.0741 15.07194609111553,6922.914,95.542,545.712,543.847,0.0
51795.0,STARLINK-3586,PAYLOAD,2024-02-25 08:49:15,15.0720476,0.0001407,53.2168,86.1967,92.998,267.1172,2.3094e-05,6.8e-07,0.0,0 STARLINK-3586,1 51795U 22017AD  24056.36754391  .00000068  00000-0  23094-4 0  9990,2 51795  53.2168  86.1967 0001407  92.9980 267.1172 15.07204760111708,6922.883,95.541,545.722,543.774,0.0
51795.0,STARLINK-3586,PAYLOAD,2024-02-25 18:22:11,15.07207979,0.0001538,53.2173,84.4156,93.0582,267.0585,-4.1274e-05,-9.12e-06,0.0,0 STARLINK-3586,1 51795U 22017AD  24056.76541561 -.00000912  00000-0 -41274-4 0  9997,2 51795  53.2173  84.4156 0001538  93.0582 267.0585 15.07207979111768,6922.873,95.541,545.803,543.674,0.0
51795.0,STARLINK-3586,PAYLOAD,2024-02-26 07:06:07,15.07197737,0.0001527,53.2179,82.042,90.2842,269.8325,8.143e-05,9.56e-06,0.0,0 STARLINK-3586,1 51795U 22017AD  24057.29591582  .00000956  00000-0  81430-4 0  9998,2 51795  53.2179  82.0420 0001527  90.2842 269.8325 15.07197737111849,6922.905,95.542,545.827,543.713,0.0
51795.0,STARLINK-3586,PAYLOAD,2024-02-27 08:33:39,15.07471011,0.0012889,53.2195,77.2889,168.6213,191.5073,0.0025163,0.00038572,0.0,0 STARLINK-3586,1 51795U 22017AD  24058.35671006  .00038572  00000-0  25163-2 0  9990,2 51795  53.2195  77.2889 0012889 168.6213 191.5073 15.07471011112007,6922.068,95.524,552.855,535.011,0.0
51795.0,STARLINK-3586,PAYLOAD,2024-02-27 22:00:00,15.08774017,0.0001134,53.2149,74.7724,91.542,71.7022,0.0066122,0.00106345,0.0,0 STARLINK-3586,1 51795U 22017AD  24058.91667824  .00106345  00000-0  66122-2 0  9999,2 51795  53.2149  74.7724 0001134  91.5420  71.7022 15.08774017112085,6918.082,95.442,540.732,539.163,0.0
51795.0,STARLINK-3586,PAYLOAD,2024-02-28 06:00:00,15.08852594,0.0001218,53.215,73.2774,85.0381,89.7671,-0.0027367,-0.00043594,0.0,0 STARLINK-3586,1 51795U 22017AD  24059.25001157 -.00043594  00000-0 -27367-2 0  9994,2 51795  53.2150  73.2774 0001218  85.0381  89.7671 15.08852594112135,6917.842,95.437,540.549,538.864,0.0
51795.0,STARLINK-3586,PAYLOAD,2024-02-28 14:00:01,15.08824107,0.0001201,53.2148,71.7811,84.3294,102.1204,0.0006261,9.686e-05,0.0,0 STARLINK-3586,1 51795U 22017AD  24059.58335648  .00009686  00000-0  62610-3 0  9998,2 51795  53.2148  71.7811 0001201  84.3294 102.1204 15.08824107  5822,6917.929,95.439,540.625,538.963,0.0
51795.0,STARLINK-3586,PAYLOAD,2024-02-28 22:00:00,15.08812339,0.0001222,53.2149,70.2831,96.383,101.5909,0.0031385,0.00049978,0.0,0 STARLINK-3586,1 51795U 22017AD  24059.91667824  .00049978  00000-0  31385-2 0  9991,2 51795  53.2149  70.2831 0001222  96.3830 101.5909 15.08812339112234,6917.965,95.439,540.675,538.985,0.0
51795.0,STARLINK-3586,PAYLOAD,2024-02-29 14:00:01,15.0882842,0.0001265,53.2152,67.2918,78.7247,142.4304,-4.2006e-05,-9.56e-06,0.0,0 STARLINK-3586,1 51795U 22017AD  24060.58334491 -.00000956  00000-0 -42006-4 0  9996,2 51795  53.2152  67.2918 0001265  78.7247 142.4304 15.08828420112335,6917.916,95.438,540.656,538.906,0.0
51795.0,STARLINK-3586,PAYLOAD,2024-02-29 22:00:00,15.08810922,0.0001274,53.2154,65.7938,88.1874,144.553,0.0031475,0.00050121,0.0,0 STARLINK-3586,1 51795U 22017AD  24060.91667824  .00050121  00000-0  31475-2 0  9995,2 51795  53.2154  65.7938 0001274  88.1874 144.5530 15.08810922  5763,6917.969,95.439,540.716,538.953,0.0
51795.0,STARLINK-3586,PAYLOAD,2024-03-01 14:00:01,15.08841335,0.0001346,53.2158,62.8025,81.766,174.1543,-0.00049707,-8.19e-05,0.0,0 STARLINK-3586,1 51795U 22017AD  24061.58334491 -.00008190  00000-0 -49707-3 0  9999,2 51795  53.2158  62.8025 0001346  81.7660 174.1543 15.08841335  5668,6917.876,95.437,540.672,538.81,0.0
51795.0,STARLINK-3586,PAYLOAD,2024-03-01 22:00:00,15.08826057,0.0001378,53.2161,61.3046,92.6082,174.913,0.003706,0.00059166,0.0,0 STARLINK-3586,1 51795U 22017AD  24061.91667824  .00059166  00000-0  37060-2 0  9990,2 51795  53.2161  61.3046 0001378  92.6082 174.9130 15.08826057112532,6917.923,95.438,540.741,538.835,0.0
51795.0,STARLINK-3586,PAYLOAD,2024-03-02 03:10:42,15.08840755,0.0001287,53.2166,60.3366,89.2272,270.8868,5.9405e-05,6.58e-06,0.0,0 STARLINK-3586,1 51795U 22017AD  24062.13243247  .00000658  00000-0  59405-4 0  9995,2 51795  53.2166  60.3366 0001287  89.2272 270.8868 15.08840755112572,6917.878,95.438,540.633,538.853,0.0
